CCSDS_OMM_VERS = 2.0
CREATION_DATE  = 
ORIGINATOR     = 

OBJECT_NAME    = IDEFIX & ARIANE 42P R/B
OBJECT_ID      = 2002-021B
CENTER_NAME    = EARTH
REF_FRAME      = TEME
TIME_SYSTEM    = UTC
MEAN_ELEMENT_THEORY = SGP/SGP4

EPOCH          = 2025-12-08T12:39:50.796000
MEAN_MOTION    = 14.30946060
ECCENTRICITY   = .00129283
INCLINATION    = 98.5780
RA_OF_ASC_NODE = 277.2733
ARG_OF_PERICENTER = 94.9180
MEAN_ANOMALY   = 265.3479

EPHEMERIS_TYPE = 0
CLASSIFICATION_TYPE = U
NORAD_CAT_ID   = 27422
ELEMENT_SET_NO = 999
REV_AT_EPOCH   = 23098
BSTAR          = .27000788E-3
MEAN_MOTION_DOT = .667E-5
MEAN_MOTION_DDOT = 0

CCSDS_OMM_VERS = 2.0
CREATION_DATE  = 
ORIGINATOR     = 

OBJECT_NAME    = AQUA
OBJECT_ID      = 2002-022A
CENTER_NAME    = EARTH
REF_FRAME      = TEME
TIME_SYSTEM    = UTC
MEAN_ELEMENT_THEORY = SGP/SGP4

EPOCH          = 2025-12-08T16:07:58.804032
MEAN_MOTION    = 14.61795515
ECCENTRICITY   = .00009368
INCLINATION    = 98.4032
RA_OF_ASC_NODE = 303.4853
ARG_OF_PERICENTER = 113.8107
MEAN_ANOMALY   = 59.1753

EPHEMERIS_TYPE = 0
CLASSIFICATION_TYPE = U
NORAD_CAT_ID   = 27424
ELEMENT_SET_NO = 999
REV_AT_EPOCH   = 25543
BSTAR          = .4446881E-3
MEAN_MOTION_DOT = .2171E-4
MEAN_MOTION_DDOT = 0

CCSDS_OMM_VERS = 2.0
CREATION_DATE  = 
ORIGINATOR     = 

OBJECT_NAME    = CZ-4B R/B
OBJECT_ID      = 2002-024C
CENTER_NAME    = EARTH
REF_FRAME      = TEME
TIME_SYSTEM    = UTC
MEAN_ELEMENT_THEORY = SGP/SGP4

EPOCH          = 2025-12-08T14:59:08.834784
MEAN_MOTION    = 14.14526728
ECCENTRICITY   = .0049149
INCLINATION    = 98.9002
RA_OF_ASC_NODE = 31.4102
ARG_OF_PERICENTER = 281.8302
MEAN_ANOMALY   = 193.7298

EPHEMERIS_TYPE = 0
CLASSIFICATION_TYPE = U
NORAD_CAT_ID   = 27432
ELEMENT_SET_NO = 999
REV_AT_EPOCH   = 21636
BSTAR          = .10087088E-3
MEAN_MOTION_DOT = .151E-5
MEAN_MOTION_DDOT = 0

CCSDS_OMM_VERS = 2.0
CREATION_DATE  = 
ORIGINATOR     = 

OBJECT_NAME    = MIDORI II (ADEOS-II)
OBJECT_ID      = 2002-056A
CENTER_NAME    = EARTH
REF_FRAME      = TEME
TIME_SYSTEM    = UTC
MEAN_ELEMENT_THEORY = SGP/SGP4

EPOCH          = 2025-12-08T14:02:14.867520
MEAN_MOTION    = 14.29201926
ECCENTRICITY   = .00000729
INCLINATION    = 98.7630
RA_OF_ASC_NODE = 295.5195
ARG_OF_PERICENTER = 31.1491
MEAN_ANOMALY   = 328.9695

EPHEMERIS_TYPE = 0
CLASSIFICATION_TYPE = U
NORAD_CAT_ID   = 27597
ELEMENT_SET_NO = 999
REV_AT_EPOCH   = 19728
BSTAR          = .25418394E-3
MEAN_MOTION_DOT = .6E-5
MEAN_MOTION_DDOT = 0

CCSDS_OMM_VERS = 2.0
CREATION_DATE  = 
ORIGINATOR     = 

OBJECT_NAME    = H-2A R/B
OBJECT_ID      = 2002-056E
CENTER_NAME    = EARTH
REF_FRAME      = TEME
TIME_SYSTEM    = UTC
MEAN_ELEMENT_THEORY = SGP/SGP4

EPOCH          = 2025-12-08T15:42:10.996416
MEAN_MOTION    = 14.33671441
ECCENTRICITY   = .00714801
INCLINATION    = 98.3058
RA_OF_ASC_NODE = 301.5738
ARG_OF_PERICENTER = 73.1248
MEAN_ANOMALY   = 99.0024

EPHEMERIS_TYPE = 0
CLASSIFICATION_TYPE = U
NORAD_CAT_ID   = 27601
ELEMENT_SET_NO = 999
REV_AT_EPOCH   = 20106
BSTAR          = .26004072E-3
MEAN_MOTION_DOT = .701E-5
MEAN_MOTION_DDOT = 0

CCSDS_OMM_VERS = 2.0
CREATION_DATE  = 
ORIGINATOR     = 

OBJECT_NAME    = CZ-4B R/B
OBJECT_ID      = 2003-049C
CENTER_NAME    = EARTH
REF_FRAME      = TEME
TIME_SYSTEM    = UTC
MEAN_ELEMENT_THEORY = SGP/SGP4

EPOCH          = 2025-12-08T12:54:43.143840
MEAN_MOTION    = 14.54903988
ECCENTRICITY   = .0048789
INCLINATION    = 98.6785
RA_OF_ASC_NODE = 328.9433
ARG_OF_PERICENTER = 148.7094
MEAN_ANOMALY   = 211.7022

EPHEMERIS_TYPE = 0
CLASSIFICATION_TYPE = U
NORAD_CAT_ID   = 28059
ELEMENT_SET_NO = 999
REV_AT_EPOCH   = 17334
BSTAR          = .19271154E-3
MEAN_MOTION_DOT = .79E-5
MEAN_MOTION_DDOT = 0

CCSDS_OMM_VERS = 2.0
CREATION_DATE  = 
ORIGINATOR     = 

OBJECT_NAME    = CZ-2C R/B
OBJECT_ID      = 2004-012C
CENTER_NAME    = EARTH
REF_FRAME      = TEME
TIME_SYSTEM    = UTC
MEAN_ELEMENT_THEORY = SGP/SGP4

EPOCH          = 2025-12-08T14:55:29.162784
MEAN_MOTION    = 15.55102526
ECCENTRICITY   = .00166726
INCLINATION    = 97.7424
RA_OF_ASC_NODE = 34.9037
ARG_OF_PERICENTER = 286.5841
MEAN_ANOMALY   = 73.3581

EPHEMERIS_TYPE = 0
CLASSIFICATION_TYPE = U
NORAD_CAT_ID   = 28222
ELEMENT_SET_NO = 999
REV_AT_EPOCH   = 19008
BSTAR          = .63090141E-3
MEAN_MOTION_DOT = .42766E-3
MEAN_MOTION_DDOT = 0

CCSDS_OMM_VERS = 2.0
CREATION_DATE  = 
ORIGINATOR     = 

OBJECT_NAME    = SL-16 R/B
OBJECT_ID      = 2004-021B
CENTER_NAME    = EARTH
REF_FRAME      = TEME
TIME_SYSTEM    = UTC
MEAN_ELEMENT_THEORY = SGP/SGP4

EPOCH          = 2025-12-08T14:10:49.869408
MEAN_MOTION    = 14.14581919
ECCENTRICITY   = .0005525
INCLINATION    = 71.0022
RA_OF_ASC_NODE = 63.6717
ARG_OF_PERICENTER = 206.4197
MEAN_ANOMALY   = 153.6645

EPHEMERIS_TYPE = 0
CLASSIFICATION_TYPE = U
NORAD_CAT_ID   = 28353
ELEMENT_SET_NO = 999
REV_AT_EPOCH   = 10995
BSTAR          = -.53177211E-4
MEAN_MOTION_DOT = -.15E-5
MEAN_MOTION_DDOT = 0

CCSDS_OMM_VERS = 2.0
CREATION_DATE  = 
ORIGINATOR     = 

OBJECT_NAME    = CZ-4B R/B
OBJECT_ID      = 2004-035C
CENTER_NAME    = EARTH
REF_FRAME      = TEME
TIME_SYSTEM    = UTC
MEAN_ELEMENT_THEORY = SGP/SGP4

EPOCH          = 2025-12-08T15:07:46.032960
MEAN_MOTION    = 15.27266918
ECCENTRICITY   = .00317757
INCLINATION    = 97.3609
RA_OF_ASC_NODE = 13.0292
ARG_OF_PERICENTER = 292.8603
MEAN_ANOMALY   = 66.9282

EPHEMERIS_TYPE = 0
CLASSIFICATION_TYPE = U
NORAD_CAT_ID   = 28415
ELEMENT_SET_NO = 999
REV_AT_EPOCH   = 16600
BSTAR          = .40566461E-3
MEAN_MOTION_DOT = .10928E-3
MEAN_MOTION_DDOT = 0

CCSDS_OMM_VERS = 2.0
CREATION_DATE  = 
ORIGINATOR     = 

OBJECT_NAME    = CZ-2C R/B
OBJECT_ID      = 2004-046B
CENTER_NAME    = EARTH
REF_FRAME      = TEME
TIME_SYSTEM    = UTC
MEAN_ELEMENT_THEORY = SGP/SGP4

EPOCH          = 2025-12-08T12:59:37.942368
MEAN_MOTION    = 14.26937699
ECCENTRICITY   = .01406241
INCLINATION    = 98.1987
RA_OF_ASC_NODE = 258.1803
ARG_OF_PERICENTER = 64.6252
MEAN_ANOMALY   = 296.9413

EPHEMERIS_TYPE = 0
CLASSIFICATION_TYPE = U
NORAD_CAT_ID   = 28480
ELEMENT_SET_NO = 999
REV_AT_EPOCH   = 9550
BSTAR          = .15312006E-3
MEAN_MOTION_DOT = .373E-5
MEAN_MOTION_DDOT = 0

CCSDS_OMM_VERS = 2.0
CREATION_DATE  = 
ORIGINATOR     = 

OBJECT_NAME    = ARIANE 5 R/B
OBJECT_ID      = 2004-049H
CENTER_NAME    = EARTH
REF_FRAME      = TEME
TIME_SYSTEM    = UTC
MEAN_ELEMENT_THEORY = SGP/SGP4

EPOCH          = 2025-12-08T11:23:57.229152
MEAN_MOTION    = 14.84997296
ECCENTRICITY   = .00833847
INCLINATION    = 98.2522
RA_OF_ASC_NODE = 142.6034
ARG_OF_PERICENTER = 286.9804
MEAN_ANOMALY   = 72.2284

EPHEMERIS_TYPE = 0
CLASSIFICATION_TYPE = U
NORAD_CAT_ID   = 28499
ELEMENT_SET_NO = 999
REV_AT_EPOCH   = 13225
BSTAR          = .22481703E-3
MEAN_MOTION_DOT = .1975E-4
MEAN_MOTION_DDOT = 0

CCSDS_OMM_VERS = 2.0
CREATION_DATE  = 
ORIGINATOR     = 

OBJECT_NAME    = CZ-2D R/B
OBJECT_ID      = 2005-024B
CENTER_NAME    = EARTH
REF_FRAME      = TEME
TIME_SYSTEM    = UTC
MEAN_ELEMENT_THEORY = SGP/SGP4

EPOCH          = 2025-12-08T14:21:27.023616
MEAN_MOTION    = 15.52855332
ECCENTRICITY   = .00061152
INCLINATION    = 97.3634
RA_OF_ASC_NODE = 349.9366
ARG_OF_PERICENTER = 20.5413
MEAN_ANOMALY   = 339.6085

EPHEMERIS_TYPE = 0
CLASSIFICATION_TYPE = U
NORAD_CAT_ID   = 28738
ELEMENT_SET_NO = 999
REV_AT_EPOCH   = 12561
BSTAR          = .48218977E-3
MEAN_MOTION_DOT = .29901E-3
MEAN_MOTION_DDOT = 0

