IDEFIX & ARIANE 42P R/B 
1 27422U 02021B   25342.52767125  .00000667  00000+0  27001-3 0  9994
2 27422  98.5780 277.2733 0012928  94.9180 265.3479 14.30946060230981
AQUA                    
1 27424U 02022A   25342.67220838  .00002171  00000+0  44469-3 0  9997
2 27424  98.4032 303.4853 0000936 113.8107  59.1753 14.61795515255435
CZ-4B R/B               
1 27432U 02024C   25342.62440781  .00000151  00000+0  10087-3 0  9999
2 27432  98.9002  31.4102 0049149 281.8302 193.7298 14.14526728216367
MIDORI II (ADEOS-II)    
1 27597U 02056A   25342.58489430  .00000600  00000+0  25418-3 0  9998
2 27597  98.7630 295.5195 0000072  31.1491 328.9695 14.29201926197284
H-2A R/B                
1 27601U 02056E   25342.65429394  .00000701  00000+0  26004-3 0  9999
2 27601  98.3058 301.5738 0071480  73.1248  99.0024 14.33671441201060
CZ-4B R/B               
1 28059U 03049C   25342.53799935  .00000790  00000+0  19271-3 0  9994
2 28059  98.6785 328.9433 0048789 148.7094 211.7022 14.54903988173344
CZ-2C R/B               
1 28222U 04012C   25342.62186531  .00042766  00000+0  63090-3 0  9996
2 28222  97.7424  34.9037 0016672 286.5841  73.3581 15.55102526190080
SL-16 R/B               
1 28353U 04021B   25342.59085497 -.00000150  00000+0 -53177-4 0  9995
2 28353  71.0022  63.6717 0005525 206.4197 153.6645 14.14581919109958
CZ-4B R/B               
1 28415U 04035C   25342.63039390  .00010928  00000+0  40566-3 0  9994
2 28415  97.3609  13.0292 0031775 292.8603  66.9282 15.27266918166009
CZ-2C R/B               
1 28480U 04046B   25342.54141137  .00000373  00000+0  15312-3 0  9995
2 28480  98.1987 258.1803 0140624  64.6252 296.9413 14.26937699 95504
ARIANE 5 R/B            
1 28499U 04049H   25342.47496793  .00001975  00000+0  22482-3 0  9996
2 28499  98.2522 142.6034 0083384 286.9804  72.2284 14.84997296132252
CZ-2D R/B               
1 28738U 05024B   25342.59822944  .00029901  00000+0  48219-3 0  9995
2 28738  97.3634 349.9366 0006115  20.5413 339.6085 15.52855332125618
